      2.10          N: GNSS NAV DATA                        RINEX VERSION / TYPE
fic2rin                                 05/12/2022 00:17:33 PGM / RUN BY / DATE
                                                            END OF HEADER
8  22  5 11  1 59 44.0 -.674910843372D-04 -.159161572810D-11  .000000000000D+00
     .270000000000D+02 -.257500000000D+02  .434660962517D-08  .955327905516D+00
    -.127218663692D-05  .744665623643D-02  .803172588348D-05  .515375840378D+04
     .266384000000D+06 -.149011611938D-07  .178823040707D+01  .175088644028D-06
     .963526151097D+00  .227093750000D+03  .165967928819D+00 -.802640576059D-08
    -.276440086268D-09  .100000000000D+01  .220900000000D+04  .000000000000D+00
     .240000000000D+01  .000000000000D+00  .512227416039D-08  .270000000000D+02
     .259200000000D+06  .400000000000D+01
16 22  5 11 18  0  0.0 -.499971210957D-03 -.329691829393D-11  .000000000000D+00
     .450000000000D+02  .263750000000D+02  .477019869792D-08 -.224971760115D+01
     .100769102573D-05  .127395064337D-01  .417605042458D-05  .515364217758D+04
     .324000000000D+06  .160187482834D-06  .851178280683D+00 -.122934579849D-06
     .969339980650D+00  .301093750000D+03  .728464850091D+00 -.818319800590D-08
     .192865176466D-09  .100000000000D+01  .220900000000D+04  .000000000000D+00
     .240000000000D+01  .000000000000D+00 -.102445483208D-07  .450000000000D+02
     .316800000000D+06  .400000000000D+01
15 22  5 11 18  0  0.0 -.620433129370D-04  .295585778076D-11  .000000000000D+00
     .670000000000D+02 -.745625000000D+02  .511985611970D-08  .212085852193D+01
    -.409968197346D-05  .140313253505D-01  .742822885513D-05  .515378628922D+04
     .324000000000D+06  .130385160446D-07 -.146031422699D+01 -.292435288429D-06
     .929897472431D+00  .221406250000D+03  .109054197695D+01 -.832570394184D-08
    -.252510518077D-09  .100000000000D+01  .220900000000D+04  .000000000000D+00
     .240000000000D+01  .000000000000D+00 -.107102096081D-07  .670000000000D+02
     .316800000000D+06  .400000000000D+01
32 22  5 11 18  0  0.0 -.124815851450D-03 -.864019966684D-11  .000000000000D+00
     .460000000000D+02 -.740625000000D+02  .433125184260D-08 -.252319087383D+01
    -.377371907234D-05  .595325569157D-02  .951252877712D-05  .515360110474D+04
     .324000000000D+06  .000000000000D+00 -.134040042808D+01 -.428408384323D-07
     .957825507517D+00  .193312500000D+03 -.228689184611D+01 -.791211528565D-08
    -.246795994329D-09  .100000000000D+01  .220900000000D+04  .000000000000D+00
     .240000000000D+01  .000000000000D+00  .465661287308D-09  .460000000000D+02
     .316800000000D+06  .400000000000D+01
24 22  5 11 18  0  0.0  .242846552283D-03 -.659383658785D-11  .000000000000D+00
     .430000000000D+02  .384687500000D+02  .496413534759D-08  .119816709430D+01
     .195391476154D-05  .124622700969D-01  .106841325760D-04  .515369376183D+04
     .324000000000D+06 -.178813934326D-06 -.364337810738D+00  .838190317154D-07
     .934605431005D+00  .159656250000D+03  .814376602923D+00 -.838606359892D-08
     .117504894551D-09  .100000000000D+01  .220900000000D+04  .000000000000D+00
     .240000000000D+01  .000000000000D+00  .279396772385D-08  .430000000000D+02
     .316800000000D+06  .400000000000D+01
22 22  5 11 18  0  0.0  .257498119026D-03  .613908923697D-11  .000000000000D+00
     .230000000000D+02 -.705000000000D+02  .416303054979D-08  .294710506074D+01
    -.359304249287D-05  .133416680619D-01  .101532787085D-04  .515369452858D+04
     .324000000000D+06  .117346644402D-06 -.124993391199D+01 -.614672899246D-07
     .961113769926D+00  .180000000000D+03 -.185305212429D+01 -.768353433576D-08
    -.267153985179D-09  .100000000000D+01  .220900000000D+04  .000000000000D+00
     .240000000000D+01  .000000000000D+00 -.838190317154D-08  .230000000000D+02
     .316800000000D+06  .400000000000D+01
26 22  5 11 18  0  0.0  .204923097044D-03  .261479726760D-11  .000000000000D+00
     .540000000000D+02  .400625000000D+02  .544808407743D-08 -.135817410154D+01
     .195018947124D-05  .692878628615D-02  .411272048950D-05  .515374153328D+04
     .324000000000D+06  .100582838058D-06  .706247045087D+00 -.949949026108D-07
     .937848168866D+00  .282562500000D+03  .389521455395D+00 -.864143137887D-08
     .222509268404D-09  .100000000000D+01  .220900000000D+04  .000000000000D+00
     .240000000000D+01  .000000000000D+00  .698491930962D-08  .540000000000D+02
     .316800000000D+06  .400000000000D+01
17 22  5 11 18  0  0.0  .611405819654D-03  .466116034659D-11  .000000000000D+00
     .480000000000D+02 -.472812500000D+02  .420660379336D-08  .305040858496D+01
    -.226497650146D-05  .134982727468D-01  .836141407490D-05  .515354866791D+04
     .324000000000D+06  .244006514549D-06  .187100316780D+01 -.745058059692D-08
     .978737169520D+00  .224343750000D+03 -.149410227449D+01 -.771925010918D-08
    -.383230248792D-09  .100000000000D+01  .220900000000D+04  .000000000000D+00
     .240000000000D+01  .000000000000D+00 -.111758708954D-07  .480000000000D+02
     .316800000000D+06  .400000000000D+01
27 22  5 11 18  0  0.0  .201128888875D-03  .648014975013D-11  .000000000000D+00
     .119000000000D+03 -.423125000000D+02  .432803742299D-08  .310629851730D+01
    -.230595469475D-05  .105495629832D-01  .872649252415D-05  .515365733147D+04
     .324000000000D+06 -.726431608200D-07  .180791009602D+01 -.201165676117D-06
     .972240505400D+00  .216531250000D+03  .679399588588D+00 -.784425531615D-08
    -.421803284086D-09  .100000000000D+01  .220900000000D+04  .000000000000D+00
     .340000000000D+01  .000000000000D+00  .186264514923D-08  .119000000000D+03
     .316800000000D+06  .400000000000D+01
14 22  5 11 18  0  0.0 -.107795000076D-03 -.181898940355D-11  .000000000000D+00
     .430000000000D+02  .330937500000D+02  .512592780118D-08 -.398747882227D+00
     .174529850483D-05  .183507555630D-02  .412575900555D-05  .515365212631D+04
     .324000000000D+06  .204890966415D-07  .799961575782D+00  .223517417908D-07
     .952875440390D+00  .294437500000D+03  .309235411090D+01 -.848571060676D-08
     .155006456641D-09  .100000000000D+01  .220900000000D+04  .000000000000D+00
     .240000000000D+01  .000000000000D+00 -.791624188423D-08  .299000000000D+03
     .316800000000D+06  .400000000000D+01
11 22  5 11 18  0  0.0 -.262777321041D-04  .500222085975D-11  .000000000000D+00
     .140000000000D+03  .318437500000D+02  .433732352408D-08  .301757616675D+01
     .164844095707D-05  .344297615811D-03  .901147723198D-05  .515357746887D+04
     .324000000000D+06 -.614672899246D-07  .291123076186D+01  .372529029846D-08
     .963104001216D+00  .208562500000D+03  .285925886354D+01 -.798783272530D-08
     .154649298907D-09  .100000000000D+01  .220900000000D+04  .000000000000D+00
     .240000000000D+01  .630000000000D+02 -.838190317154D-08  .140000000000D+03
     .316800000000D+06  .400000000000D+01
23 22  5 11 18  0  0.0 -.211987644434D-04 -.250111042988D-11  .000000000000D+00
     .148000000000D+03 -.831250000000D+01  .465055085697D-08  .144418728580D+00
    -.663101673126D-06  .211850192863D-02  .432692468166D-05  .515370455933D+04
     .324000000000D+06  .409781932831D-07 -.240805987491D+01 -.316649675369D-07
     .968486796585D+00  .301031250000D+03  .300115602021D+01 -.832570394184D-08
    -.207151485834D-10  .100000000000D+01  .220900000000D+04  .000000000000D+00
     .240000000000D+01  .000000000000D+00 -.838190317154D-08  .916000000000D+03
     .316800000000D+06  .400000000000D+01
18 22  5 11 18  0  0.0  .172803178430D-03 -.100044417195D-10  .000000000000D+00
     .111000000000D+03  .364687500000D+02  .426017745349D-08  .121906587823D+01
     .199861824512D-05  .229405576829D-02  .895746052265D-05  .515360822296D+04
     .324000000000D+06  .502914190292D-07  .287602456450D+01  .931322574615D-08
     .971739947498D+00  .209187500000D+03  .303970641757D+01 -.798676125209D-08
     .106433004790D-09  .100000000000D+01  .220900000000D+04  .000000000000D+00
     .240000000000D+01  .000000000000D+00 -.838190317154D-08  .623000000000D+03
     .316800000000D+06  .400000000000D+01
